STARLINK-37107          
1 68294U 26057A   26085.50002314 -.01034611  37431-3 -14444-2 0  9993
2 68294  97.2829 208.3959 0001144  53.0996  21.9059 16.05947120  1862
STARLINK-37147          
1 68295U 26057B   26085.50002314 -.01037781  37687-3 -14405-2 0  9995
2 68295  97.2827 208.3963 0001093  51.9736  24.5195 16.06042195  1856
STARLINK-37142          
1 68296U 26057C   26085.50002314 -.01029721  37308-3 -13989-2 0  9997
2 68296  97.2826 208.3982 0001135  49.9326  31.0976 16.06392022  1741
STARLINK-37115          
1 68297U 26057D   26085.50002314 -.01047121  38436-3 -14313-2 0  9997
2 68297  97.2824 208.3970 0001199  53.7691  25.8821 16.06294534  1744
STARLINK-36355          
1 68298U 26057E   26085.50002314 -.01059114  39188-3 -14600-2 0  9997
2 68298  97.2826 208.3966 0001153  55.1281  22.7782 16.06157670  2015
STARLINK-37118          
1 68299U 26057F   26085.50002314 -.01049386  38759-3 -14033-2 0  9991
2 68299  97.2823 208.3994 0001210  53.7629  30.4288 16.06650314  1859
STARLINK-36875          
1 68300U 26057G   26085.50002314 -.01050484  38785-3 -14138-2 0  9990
2 68300  97.2824 208.3987 0001205  53.2466  29.5925 16.06547070  1911
STARLINK-37099          
1 68301U 26057H   26085.50002314 -.01046560  38641-3 -13862-2 0  9995
2 68301  97.2822 208.4005 0001278  51.4427  34.6494 16.06804788  1740
STARLINK-37007          
1 68302U 26057J   26085.50002314 -.01026909  37450-3 -13348-2 0  9997
2 68302  97.2820 208.4019 0001053  55.3308  34.4845 16.07105867  1961
STARLINK-36300          
1 68303U 26057K   26085.50002314 -.01035878  37992-3 -13581-2 0  9993
2 68303  97.2821 208.4012 0001087  59.2467  28.8557 16.06968999  2018
STARLINK-36849          
1 68304U 26057L   26085.50002314 -.01042605  38569-3 -13458-2 0  9994
2 68304  97.2820 208.4024 0001220  51.9397  39.2038 16.07219202  1916
STARLINK-36277          
1 68305U 26057M   26085.50002314 -.01054135  39489-3 -13391-2 0  9994
2 68305  97.2818 208.4036 0001128  62.9172  31.3579 16.07478645  2076
